[{"OBJECT_NAME":"TRANSPORTER-14 OBJECT AC","OBJECT_ID":"2025-135AC","EPOCH":"2026-03-09T19:42:26.378496","MEAN_MOTION":15.26845403,"ECCENTRICITY":0.00010083,"INCLINATION":97.4518,"RA_OF_ASC_NODE":185.7428,"ARG_OF_PERICENTER":268.0523,"MEAN_ANOMALY":92.06,"EPHEMERIS_TYPE":0,"CLASSIFICATION_TYPE":"U","NORAD_CAT_ID":64554,"ELEMENT_SET_NO":999,"REV_AT_EPOCH":3982,"BSTAR":0.0009323368,"MEAN_MOTION_DOT":0.00024574,"MEAN_MOTION_DDOT":0},{"OBJECT_NAME":"STARLINK-35581","OBJECT_ID":"2025-262Z","EPOCH":"2026-03-09T23:15:01.747008","MEAN_MOTION":15.27558466,"ECCENTRICITY":0.00056762,"INCLINATION":42.9998,"RA_OF_ASC_NODE":294.1941,"ARG_OF_PERICENTER":234.896,"MEAN_ANOMALY":125.136,"EPHEMERIS_TYPE":0,"CLASSIFICATION_TYPE":"U","NORAD_CAT_ID":66479,"ELEMENT_SET_NO":999,"REV_AT_EPOCH":1895,"BSTAR":0.0011772313,"MEAN_MOTION_DOT":0.00032265,"MEAN_MOTION_DDOT":0}]
